[{"OBJECT_NAME":"KUIPER-00101","OBJECT_ID":"2025-228A","EPOCH":"2026-03-09T05:20:33.862560","MEAN_MOTION":14.79939717,"ECCENTRICITY":7.84e-5,"INCLINATION":51.8989,"RA_OF_ASC_NODE":2.6437,"ARG_OF_PERICENTER":94.525,"MEAN_ANOMALY":265.5802,"EPHEMERIS_TYPE":0,"CLASSIFICATION_TYPE":"U","NORAD_CAT_ID":65947,"ELEMENT_SET_NO":999,"REV_AT_EPOCH":2316,"BSTAR":0.00043135535,"MEAN_MOTION_DOT":3.069e-5,"MEAN_MOTION_DDOT":0},{"OBJECT_NAME":"SL-14 R\/B","OBJECT_ID":"1987-038B","EPOCH":"2026-03-09T16:49:27.049728","MEAN_MOTION":14.85369371,"ECCENTRICITY":0.00196849,"INCLINATION":82.5,"RA_OF_ASC_NODE":296.7973,"ARG_OF_PERICENTER":160.3861,"MEAN_ANOMALY":199.8117,"EPHEMERIS_TYPE":0,"CLASSIFICATION_TYPE":"U","NORAD_CAT_ID":17912,"ELEMENT_SET_NO":999,"REV_AT_EPOCH":7923,"BSTAR":5.9620516e-5,"MEAN_MOTION_DOT":5.39e-6,"MEAN_MOTION_DDOT":0}]
